[{"OBJECT_NAME":"ORBCOMM FM118","OBJECT_ID":"2015-081E","EPOCH":"2026-03-09T11:40:57.402336","MEAN_MOTION":14.58732197,"ECCENTRICITY":0.00039245,"INCLINATION":47.0034,"RA_OF_ASC_NODE":113.1194,"ARG_OF_PERICENTER":286.8765,"MEAN_ANOMALY":73.169,"EPHEMERIS_TYPE":0,"CLASSIFICATION_TYPE":"U","NORAD_CAT_ID":41183,"ELEMENT_SET_NO":999,"REV_AT_EPOCH":54317,"BSTAR":0.00026393443,"MEAN_MOTION_DOT":1.073e-5,"MEAN_MOTION_DDOT":0},{"OBJECT_NAME":"FENGYUN 1C DEB","OBJECT_ID":"1999-025EZE","EPOCH":"2026-02-28T01:12:00.206496","MEAN_MOTION":14.19309301,"ECCENTRICITY":0.02037024,"INCLINATION":98.6343,"RA_OF_ASC_NODE":96.5693,"ARG_OF_PERICENTER":48.0704,"MEAN_ANOMALY":313.764,"EPHEMERIS_TYPE":0,"CLASSIFICATION_TYPE":"U","NORAD_CAT_ID":46449,"ELEMENT_SET_NO":999,"REV_AT_EPOCH":58733,"BSTAR":0.00049786241,"MEAN_MOTION_DOT":1.241e-5,"MEAN_MOTION_DDOT":0}]
